HIERARCHY
ROOT hip_center
{
  OFFSET -0.003768 0.000459 0.000372
  CHANNELS 3 Xposition Yposition Zposition
  JOINT right_hip
  {
    OFFSET -0.006308 0.011686 -0.105556
    CHANNELS 3 Xposition Yposition Zposition
    JOINT right_knee
    {
      OFFSET 0.043082 0.358045 0.079572
      CHANNELS 3 Xposition Yposition Zposition
      JOINT right_ankle
      {
        OFFSET -0.030716 0.337469 0.057412
        CHANNELS 3 Xposition Yposition Zposition
        End Site
        {
          OFFSET -0.015358 0.168734 0.028706
        }
      }
    }
  }
  JOINT left_hip
  {
    OFFSET 0.006308 -0.011686 0.105558
    CHANNELS 3 Xposition Yposition Zposition
    JOINT left_knee
    {
      OFFSET 0.047599 0.324547 0.086700
      CHANNELS 3 Xposition Yposition Zposition
      JOINT left_ankle
      {
        OFFSET -0.025842 0.324247 0.013109
        CHANNELS 3 Xposition Yposition Zposition
        End Site
        {
          OFFSET -0.012921 0.162123 0.006555
        }
      }
    }
  }
  JOINT spine
  {
    OFFSET 0.079131 -0.199884 -0.022399
    CHANNELS 3 Xposition Yposition Zposition
    JOINT thorax
    {
      OFFSET 0.079131 -0.199883 -0.022399
      CHANNELS 3 Xposition Yposition Zposition
      JOINT neck
      {
        OFFSET 0.073719 -0.021988 -0.002208
        CHANNELS 3 Xposition Yposition Zposition
        JOINT head
        {
          OFFSET 0.073454 -0.022974 -0.002321
          CHANNELS 3 Xposition Yposition Zposition
          End Site
          {
            OFFSET 0.036727 -0.011487 -0.001160
          }
        }
      }
      JOINT left_shoulder
      {
        OFFSET -0.007671 0.011528 0.118870
        CHANNELS 3 Xposition Yposition Zposition
        JOINT left_elbow
        {
          OFFSET -0.010763 0.214630 0.079801
          CHANNELS 3 Xposition Yposition Zposition
          JOINT left_wrist
          {
            OFFSET 0.083916 0.182705 0.011188
            CHANNELS 3 Xposition Yposition Zposition
            End Site
            {
              OFFSET 0.041958 0.091353 0.005594
            }
          }
        }
      }
      JOINT right_shoulder
      {
        OFFSET 0.006701 -0.009040 -0.119141
        CHANNELS 3 Xposition Yposition Zposition
        JOINT right_elbow
        {
          OFFSET -0.001142 0.212919 -0.045474
          CHANNELS 3 Xposition Yposition Zposition
          JOINT right_wrist
          {
            OFFSET 0.067560 0.190072 -0.001129
            CHANNELS 3 Xposition Yposition Zposition
            End Site
            {
              OFFSET 0.033780 0.095036 -0.000565
            }
          }
        }
      }
    }
  }
}
MOTION
Frames: 138
Frame Time: 0.033358
-0.003768 0.000459 0.000372 -0.010076 0.012145 -0.105184 0.033006 0.370190 -0.025612 0.002289 0.707659 0.031800 0.002540 -0.011228 0.105930 0.050139 0.313319 0.192630 0.024297 0.637566 0.205739 0.075363 -0.199425 -0.022027 0.154493 -0.399309 -0.044426 0.228212 -0.421296 -0.046634 0.301666 -0.444270 -0.048955 0.146822 -0.387781 0.074444 0.136059 -0.173151 0.154245 0.219975 0.009554 0.165433 0.161194 -0.408349 -0.163567 0.160052 -0.195430 -0.209041 0.227611 -0.005358 -0.210170
-0.003711 0.000470 0.000399 -0.010521 0.011963 -0.105148 0.032832 0.370013 -0.025744 0.002209 0.707537 0.031388 0.003099 -0.011024 0.105947 0.049650 0.314089 0.191082 0.023820 0.638352 0.203799 0.075320 -0.199444 -0.022092 0.154350 -0.399357 -0.044582 0.228048 -0.421412 -0.046823 0.301496 -0.444401 -0.049171 0.147701 -0.387499 0.074317 0.136964 -0.172818 0.153983 0.220911 0.009898 0.164753 0.160077 -0.408866 -0.163737 0.159319 -0.196075 -0.209809 0.227249 -0.006166 -0.213439
-0.003612 0.000486 0.000431 -0.011341 0.011614 -0.105091 0.032491 0.369679 -0.026015 0.002051 0.707306 0.030606 0.004121 -0.010642 0.105955 0.048764 0.315438 0.188367 0.023048 0.639725 0.200708 0.075220 -0.199488 -0.022215 0.154051 -0.399462 -0.044861 0.227717 -0.421614 -0.047177 0.301159 -0.444616 -0.049591 0.149235 -0.387002 0.074064 0.138560 -0.172234 0.153507 0.222534 0.010509 0.163589 0.158004 -0.409796 -0.164019 0.157849 -0.197302 -0.211452 0.226439 -0.007805 -0.220352
-0.003490 0.000505 0.000464 -0.012446 0.011151 -0.105011 0.032019 0.369237 -0.026390 0.001838 0.706994 0.029593 0.005478 -0.010140 0.105939 0.047705 0.317106 0.184933 0.022148 0.641410 0.197139 0.075075 -0.199551 -0.022389 0.153639 -0.399606 -0.045244 0.227266 -0.421875 -0.047669 0.300702 -0.444885 -0.050180 0.151267 -0.386337 0.073668 0.140699 -0.171480 0.152880 0.224673 0.011311 0.162048 0.155215 -0.411041 -0.164357 0.155693 -0.199038 -0.213935 0.225002 -0.010327 -0.230592
-0.003362 0.000513 0.000507 -0.013741 0.010604 -0.104892 0.031440 0.368722 -0.026826 0.001563 0.706619 0.028474 0.007039 -0.009576 0.105905 0.046651 0.318872 0.181178 0.021183 0.643180 0.193478 0.074876 -0.199645 -0.022570 0.153110 -0.399804 -0.045649 0.226700 -0.422188 -0.048160 0.300130 -0.445209 -0.050745 0.153499 -0.385590 0.073177 0.143073 -0.170676 0.152253 0.227013 0.012178 0.160449 0.151962 -0.412470 -0.164642 0.152858 -0.201214 -0.217307 0.222808 -0.013880 -0.243876
-0.003227 0.000511 0.000559 -0.015192 0.009981 -0.104730 0.030737 0.368148 -0.027326 0.001194 0.706197 0.027212 0.008772 -0.008958 0.105845 0.045532 0.320728 0.177042 0.020142 0.645027 0.189730 0.074608 -0.199776 -0.022766 0.152435 -0.400065 -0.046095 0.225987 -0.422567 -0.048640 0.299409 -0.445614 -0.051249 0.155751 -0.384832 0.072559 0.145452 -0.169918 0.151654 0.229324 0.013006 0.158915 0.148360 -0.414014 -0.164880 0.149349 -0.203822 -0.221641 0.219878 -0.018633 -0.259376
-0.003095 0.000496 0.000613 -0.016675 0.009318 -0.104536 0.029989 0.367542 -0.027844 0.000790 0.705750 0.025896 0.010532 -0.008325 0.105757 0.044465 0.322529 0.172817 0.019147 0.646811 0.186093 0.074312 -0.199927 -0.022962 0.151706 -0.400354 -0.046544 0.225217 -0.422995 -0.049069 0.298624 -0.446090 -0.051649 0.157839 -0.384120 0.071865 0.147628 -0.169268 0.151139 0.231426 0.013717 0.157658 0.144805 -0.415560 -0.165044 0.145516 -0.206841 -0.227007 0.216658 -0.024740 -0.276718
-0.002972 0.000468 0.000665 -0.018119 0.008643 -0.104321 0.029251 0.366932 -0.028368 0.000395 0.705296 0.024564 0.012234 -0.007707 0.105645 0.043546 0.324200 0.168655 0.018250 0.648454 0.182626 0.074021 -0.200082 -0.023184 0.150997 -0.400637 -0.047044 0.224452 -0.423467 -0.049494 0.297838 -0.446638 -0.051985 0.159701 -0.383496 0.071075 0.149478 -0.168787 0.150735 0.233266 0.014222 0.156713 0.141556 -0.417061 -0.165206 0.141641 -0.210366 -0.233622 0.213642 -0.032612 -0.296172
-0.002864 0.000424 0.000722 -0.019484 0.007982 -0.104088 0.028558 0.366340 -0.028882 0.000039 0.704856 0.023256 0.013823 -0.007137 0.105523 0.042838 0.325691 0.164659 0.017472 0.649906 0.179383 0.073744 -0.200236 -0.023445 0.150331 -0.400901 -0.047625 0.223708 -0.423985 -0.050008 0.297065 -0.447259 -0.052415 0.161336 -0.382989 0.070187 0.151038 -0.168483 0.150382 0.234860 0.014522 0.155963 0.138684 -0.418492 -0.165422 0.137847 -0.214563 -0.241681 0.211158 -0.042725 -0.317776
-0.002778 0.000365 0.000788 -0.020758 0.007363 -0.103836 0.027926 0.365789 -0.029370 -0.000282 0.704456 0.021945 0.015273 -0.006638 0.105401 0.042364 0.326993 0.160809 0.016791 0.651154 0.176331 0.073451 -0.200395 -0.023742 0.149656 -0.401161 -0.048291 0.222925 -0.424582 -0.050698 0.296259 -0.447931 -0.053095 0.162759 -0.382692 0.069220 0.152328 -0.168428 0.150042 0.236171 0.014574 0.155405 0.136148 -0.419982 -0.165698 0.133446 -0.220485 -0.252860 0.210081 -0.057762 -0.344191
-0.002712 0.000299 0.000865 -0.021923 0.006795 -0.103572 0.027368 0.365284 -0.029813 -0.000558 0.704094 0.020707 0.016570 -0.006204 0.105291 0.042164 0.328097 0.157259 0.016186 0.652189 0.173537 0.073140 -0.200554 -0.024071 0.148965 -0.401413 -0.049031 0.222115 -0.425193 -0.051538 0.295436 -0.448575 -0.053994 0.164042 -0.382507 0.068174 0.153522 -0.168498 0.149659 0.237331 0.014523 0.154907 0.133807 -0.421504 -0.166025 0.128225 -0.228328 -0.266302 0.210943 -0.079594 -0.374602
-0.002662 0.000236 0.000947 -0.022961 0.006284 -0.103311 0.026891 0.364831 -0.030212 -0.000790 0.703758 0.019658 0.017705 -0.005822 0.105194 0.042230 0.329017 0.154124 0.015627 0.653024 0.171077 0.072814 -0.200705 -0.024413 0.148261 -0.401653 -0.049803 0.221297 -0.425769 -0.052435 0.294622 -0.449129 -0.054969 0.165166 -0.382405 0.067096 0.154650 -0.168658 0.149263 0.238386 0.014403 0.154279 0.131651 -0.423002 -0.166377 0.121974 -0.238445 -0.281480 0.214034 -0.112182 -0.409056
-0.002627 0.000171 0.001039 -0.023879 0.005839 -0.103050 0.026522 0.364435 -0.030574 -0.000949 0.703478 0.018619 0.018688 -0.005509 0.105117 0.042517 0.329767 0.151326 0.015167 0.653682 0.168830 0.072501 -0.200844 -0.024765 0.147598 -0.401866 -0.050606 0.220513 -0.426323 -0.053423 0.293840 -0.449662 -0.056092 0.166173 -0.382351 0.065995 0.155683 -0.168871 0.148861 0.239325 0.014230 0.153970 0.129721 -0.424406 -0.166767 0.115981 -0.250101 -0.296506 0.217210 -0.152799 -0.441345
-0.002607 0.000114 0.001119 -0.024696 0.005451 -0.102814 0.026227 0.364088 -0.030907 -0.001052 0.703227 0.017724 0.019539 -0.005235 0.105041 0.042891 0.330390 0.148902 0.014776 0.654217 0.166825 0.072193 -0.200969 -0.025109 0.146959 -0.402057 -0.051379 0.219761 -0.426827 -0.054407 0.293091 -0.450136 -0.057241 0.167011 -0.382345 0.064944 0.156664 -0.169096 0.148419 0.240227 0.014045 0.153411 0.128006 -0.425673 -0.167156 0.111108 -0.262173 -0.309935 0.220257 -0.203582 -0.469141
-0.002597 0.000064 0.001189 -0.025405 0.005110 -0.102604 0.025996 0.363784 -0.031225 -0.001111 0.703007 0.016924 0.020259 -0.004994 0.104971 0.043270 0.330917 0.146770 0.014457 0.654664 0.165026 0.071900 -0.201080 -0.025424 0.146363 -0.402230 -0.052083 0.219060 -0.427273 -0.055363 0.292390 -0.450556 -0.058412 0.167707 -0.382361 0.063984 0.157564 -0.169299 0.147959 0.241072 0.013875 0.152657 0.126481 -0.426769 -0.167511 0.107635 -0.273703 -0.321196 0.220234 -0.252835 -0.487266
-0.002597 0.000023 0.001245 -0.026021 0.004809 -0.102422 0.025822 0.363519 -0.031543 -0.001136 0.702808 0.016213 0.020869 -0.004776 0.104904 0.043603 0.331373 0.144904 0.014199 0.655053 0.163412 0.071625 -0.201179 -0.025704 0.145813 -0.402385 -0.052699 0.218420 -0.427649 -0.056274 0.291746 -0.450905 -0.059588 0.168292 -0.382380 0.063129 0.158397 -0.169463 0.147501 0.241886 0.013733 0.151660 0.125112 -0.427693 -0.167817 0.105609 -0.284094 -0.330305 0.217943 -0.295096 -0.497497
-0.002603 -0.000009 0.001288 -0.026536 0.004538 -0.102274 0.025708 0.363286 -0.031883 -0.001124 0.702628 0.015565 0.021366 -0.004569 0.104842 0.043875 0.331779 0.143270 0.014004 0.655405 0.161973 0.071398 -0.201260 -0.025901 0.145366 -0.402516 -0.053134 0.217902 -0.427936 -0.057010 0.291215 -0.451194 -0.060611 0.168781 -0.382329 0.062477 0.159155 -0.169479 0.147049 0.242652 0.013731 0.150320 0.123951 -0.428402 -0.167992 0.105419 -0.290833 -0.335727 0.215610 -0.316221 -0.502779
-0.002615 -0.000036 0.001313 -0.026935 0.004267 -0.102168 0.025651 0.363062 -0.032275 -0.001082 0.702427 0.015068 0.021735 -0.004350 0.104790 0.044093 0.332160 0.141860 0.013857 0.655741 0.160748 0.071264 -0.201333 -0.025865 0.145113 -0.402634 -0.053080 0.217617 -0.428092 -0.057320 0.290891 -0.451410 -0.061301 0.169158 -0.382114 0.062344 0.159808 -0.169179 0.146732 0.243358 0.014030 0.148288 0.123094 -0.428774 -0.167766 0.107392 -0.289106 -0.334049 0.219673 -0.291398 -0.501622
-0.002626 -0.000051 0.001327 -0.027237 0.004050 -0.102094 0.025656 0.362880 -0.032614 -0.001005 0.702268 0.014601 0.022008 -0.004162 0.104744 0.044190 0.332488 0.140626 0.013756 0.656043 0.159642 0.071170 -0.201375 -0.025875 0.144941 -0.402703 -0.053108 0.217397 -0.428228 -0.057732 0.290634 -0.451593 -0.062108 0.169477 -0.381957 0.062172 0.160438 -0.168918 0.146332 0.244066 0.014261 0.146221 0.122512 -0.429107 -0.167654 0.109160 -0.288702 -0.333521 0.221573 -0.286103 -0.501001
-0.002633 -0.000059 0.001334 -0.027448 0.003882 -0.102045 0.025704 0.362741 -0.032913 -0.000907 0.702144 0.014229 0.022201 -0.004008 0.104710 0.044161 0.332761 0.139604 0.013676 0.656308 0.158678 0.071111 -0.201392 -0.025937 0.144833 -0.402730 -0.053234 0.217222 -0.428364 -0.058286 0.290424 -0.451750 -0.063094 0.169804 -0.381937 0.061943 0.161060 -0.168837 0.145979 0.244673 0.014341 0.144307 0.122126 -0.429402 -0.167664 0.109863 -0.291085 -0.335358 0.224082 -0.289313 -0.501622
-0.002637 -0.000060 0.001335 -0.027565 0.003741 -0.102021 0.025793 0.362627 -0.033187 -0.000788 0.702033 0.013948 0.022306 -0.003869 0.104690 0.044024 0.333001 0.138748 0.013621 0.656554 0.157843 0.071137 -0.201384 -0.025930 0.144893 -0.402710 -0.053217 0.217216 -0.428441 -0.058695 0.290372 -0.451879 -0.063943 0.170114 -0.381903 0.061904 0.161634 -0.168704 0.145714 0.245185 0.014479 0.142301 0.122048 -0.429509 -0.167589 0.110313 -0.290864 -0.335051 0.228876 -0.277307 -0.497692
-0.002641 -0.000058 0.001327 -0.027598 0.003625 -0.102027 0.025927 0.362534 -0.033445 -0.000653 0.701933 0.013740 0.022330 -0.003748 0.104680 0.043789 0.333210 0.138023 0.013594 0.656782 0.157135 0.071275 -0.201342 -0.025849 0.145177 -0.402627 -0.053042 0.217445 -0.428439 -0.058853 0.290539 -0.451989 -0.064450 0.170419 -0.381802 0.062070 0.162170 -0.168455 0.145529 0.245618 0.014729 0.140207 0.122331 -0.429354 -0.167432 0.110893 -0.286912 -0.331697 0.234175 -0.252569 -0.487630
-0.002646 -0.000052 0.001313 -0.027564 0.003539 -0.102054 0.026093 0.362470 -0.033689 -0.000513 0.701852 0.013608 0.022283 -0.003648 0.104678 0.043446 0.333387 0.137422 0.013584 0.656989 0.156557 0.071519 -0.201265 -0.025706 0.145673 -0.402479 -0.052738 0.217905 -0.428349 -0.058753 0.290922 -0.452080 -0.064575 0.170692 -0.381634 0.062420 0.162626 -0.168109 0.145439 0.245927 0.015075 0.138165 0.122961 -0.428894 -0.167226 0.111729 -0.279780 -0.325474 0.238906 -0.214681 -0.467885
-0.002650 -0.000040 0.001291 -0.027458 0.003491 -0.102104 0.026281 0.362441 -0.033903 -0.000375 0.701805 0.013489 0.022166 -0.003575 0.104686 0.042969 0.333533 0.136910 0.013594 0.657176 0.156088 0.071865 -0.201149 -0.025536 0.146371 -0.402259 -0.052373 0.218581 -0.428183 -0.058417 0.291508 -0.452180 -0.064287 0.170872 -0.381433 0.062899 0.162923 -0.167699 0.145388 0.246068 0.015475 0.136292 0.123969 -0.428096 -0.167054 0.113266 -0.269594 -0.315937 0.237562 -0.165630 -0.436082
-0.002667 -0.000023 0.001259 -0.027279 0.003465 -0.102184 0.026515 0.362422 -0.034068 -0.000198 0.701782 0.013326 0.021951 -0.003514 0.104703 0.042363 0.333668 0.136403 0.013662 0.657364 0.155707 0.072427 -0.200938 -0.025404 0.147519 -0.401853 -0.052076 0.219698 -0.427928 -0.057825 0.292498 -0.452372 -0.063420 0.170895 -0.381155 0.063453 0.162973 -0.167201 0.145376 0.246036 0.015916 0.134570 0.125903 -0.426765 -0.167112 0.115833 -0.255918 -0.301698 0.226037 -0.115826 -0.396155
-0.002678 -0.000009 0.001229 -0.027046 0.003473 -0.102272 0.026751 0.362445 -0.034236 -0.000029 0.701797 0.013180 0.021697 -0.003493 0.104731 0.041656 0.333753 0.136026 0.013733 0.657513 0.155404 0.073041 -0.200707 -0.025303 0.148767 -0.401401 -0.051843 0.220956 -0.427560 -0.057059 0.293608 -0.452546 -0.062161 0.170717 -0.380903 0.064001 0.162884 -0.166674 0.145210 0.245910 0.016393 0.133319 0.128063 -0.424881 -0.167347 0.119607 -0.243110 -0.286893 0.218377 -0.084046 -0.361967
-0.002679 0.000002 0.001209 -0.026802 0.003506 -0.102349 0.026959 0.362498 -0.034387 0.000109 0.701841 0.013045 0.021449 -0.003504 0.104767 0.040888 0.333801 0.135755 0.013797 0.657629 0.155180 0.073645 -0.200481 -0.025220 0.149987 -0.400955 -0.051655 0.222189 -0.427175 -0.056359 0.294690 -0.452686 -0.060993 0.170485 -0.380717 0.064500 0.162811 -0.166203 0.144968 0.245809 0.016832 0.132421 0.130243 -0.422948 -0.167619 0.123645 -0.232882 -0.273614 0.213399 -0.063423 -0.336231
-0.002672 0.000010 0.001202 -0.026571 0.003549 -0.102407 0.027115 0.362565 -0.034514 0.000189 0.701906 0.012888 0.021230 -0.003531 0.104811 0.040085 0.333826 0.135600 0.013828 0.657722 0.155027 0.074149 -0.200295 -0.025134 0.150996 -0.400589 -0.051474 0.223216 -0.426829 -0.055782 0.295589 -0.452760 -0.060061 0.170270 -0.380592 0.064932 0.162854 -0.165788 0.144646 0.245813 0.017244 0.131792 0.132063 -0.421297 -0.167809 0.127453 -0.225325 -0.262556 0.210987 -0.050193 -0.317726
-0.002665 0.000015 0.001192 -0.026382 0.003584 -0.102458 0.027202 0.362629 -0.034637 0.000191 0.701973 0.012699 0.021054 -0.003555 0.104843 0.039283 0.333851 0.135468 0.013815 0.657812 0.154868 0.074504 -0.200171 -0.025027 0.151702 -0.400345 -0.051248 0.223928 -0.426605 -0.055315 0.296249 -0.452719 -0.059369 0.170267 -0.380529 0.065304 0.163042 -0.165491 0.144404 0.245958 0.017549 0.131393 0.133318 -0.420460 -0.167775 0.130265 -0.221008 -0.255029 0.209597 -0.042739 -0.306210
-0.002658 0.000015 0.001183 -0.026277 0.003597 -0.102488 0.027195 0.362676 -0.034758 0.000094 0.702023 0.012505 0.020964 -0.003569 0.104856 0.038535 0.333884 0.135345 0.013744 0.657901 0.154689 0.074694 -0.200118 -0.024904 0.152074 -0.400240 -0.050993 0.224291 -0.426534 -0.054991 0.296646 -0.452567 -0.058958 0.170561 -0.380538 0.065591 0.163445 -0.165344 0.144274 0.246287 0.017727 0.131209 0.133900 -0.420548 -0.167520 0.131703 -0.220408 -0.253209 0.208659 -0.041326 -0.305174
-0.002652 0.000008 0.001185 -0.026242 0.003593 -0.102493 0.027125 0.362705 -0.034853 -0.000064 0.702056 0.012329 0.020941 -0.003579 0.104864 0.037929 0.333914 0.135251 0.013639 0.657973 0.154514 0.074795 -0.200106 -0.024772 0.152266 -0.400209 -0.050729 0.224479 -0.426513 -0.054759 0.296911 -0.452328 -0.058732 0.170999 -0.380565 0.065826 0.164049 -0.165256 0.144208 0.246803 0.017872 0.131390 0.134096 -0.421050 -0.167162 0.132199 -0.222030 -0.255429 0.208083 -0.043910 -0.312068
-0.002641 -0.000006 0.001199 -0.026275 0.003577 -0.102469 0.027010 0.362723 -0.034947 -0.000267 0.702075 0.012177 0.020996 -0.003590 0.104868 0.037496 0.333932 0.135193 0.013525 0.658023 0.154332 0.074828 -0.200114 -0.024733 0.152317 -0.400213 -0.050664 0.224523 -0.426515 -0.054831 0.297067 -0.451999 -0.058903 0.171655 -0.380618 0.065800 0.164915 -0.165265 0.144080 0.247594 0.017928 0.131710 0.133897 -0.421836 -0.166915 0.131832 -0.225814 -0.261648 0.208138 -0.050085 -0.324812
-0.002627 -0.000018 0.001219 -0.026366 0.003545 -0.102426 0.026895 0.362722 -0.035051 -0.000470 0.702084 0.011957 0.021115 -0.003583 0.104865 0.037300 0.333958 0.135156 0.013456 0.658063 0.154200 0.074861 -0.200114 -0.024756 0.152366 -0.400201 -0.050730 0.224562 -0.426514 -0.054989 0.297205 -0.451708 -0.059116 0.172395 -0.380632 0.065621 0.165974 -0.165230 0.143792 0.248648 0.017994 0.131856 0.133590 -0.422556 -0.166786 0.131341 -0.228961 -0.266383 0.207653 -0.055740 -0.336123
-0.002611 -0.000031 0.001247 -0.026544 0.003487 -0.102354 0.026788 0.362693 -0.035192 -0.000656 0.702067 0.011678 0.021325 -0.003550 0.104850 0.037357 0.334001 0.135106 0.013438 0.658105 0.154079 0.074910 -0.200101 -0.024823 0.152447 -0.400164 -0.050893 0.224648 -0.426456 -0.055191 0.297380 -0.451389 -0.059328 0.173297 -0.380537 0.065304 0.167290 -0.165064 0.143313 0.249974 0.018169 0.131600 0.133123 -0.423171 -0.166731 0.130675 -0.231206 -0.269431 0.205607 -0.059754 -0.344810
-0.002591 -0.000049 0.001285 -0.026827 0.003408 -0.102248 0.026692 0.362640 -0.035373 -0.000824 0.702021 0.011403 0.021647 -0.003507 0.104820 0.037692 0.334046 0.135043 0.013469 0.658131 0.153965 0.074963 -0.200088 -0.024926 0.152532 -0.400120 -0.051137 0.224754 -0.426348 -0.055479 0.297569 -0.451033 -0.059637 0.174402 -0.380368 0.064851 0.168905 -0.164816 0.142679 0.251592 0.018420 0.131034 0.132417 -0.423707 -0.166724 0.129728 -0.233349 -0.272366 0.203154 -0.063420 -0.352526
-0.002573 -0.000069 0.001325 -0.027188 0.003319 -0.102121 0.026635 0.362571 -0.035597 -0.000956 0.701950 0.011150 0.022044 -0.003457 0.104773 0.038300 0.334088 0.134967 0.013554 0.658135 0.153866 0.075062 -0.200052 -0.025071 0.152709 -0.400029 -0.051467 0.224967 -0.426150 -0.055855 0.297850 -0.450630 -0.060047 0.175676 -0.380108 0.064280 0.170799 -0.164471 0.141914 0.253468 0.018768 0.130181 0.131633 -0.424013 -0.166800 0.128662 -0.234887 -0.274623 0.200662 -0.065875 -0.357954
-0.002551 -0.000081 0.001362 -0.027589 0.003220 -0.101985 0.026653 0.362481 -0.035854 -0.001032 0.701857 0.010858 0.022489 -0.003382 0.104710 0.039202 0.334146 0.134844 0.013704 0.658131 0.153804 0.075237 -0.199972 -0.025282 0.153036 -0.399857 -0.051928 0.225350 -0.425847 -0.056169 0.298268 -0.450246 -0.060216 0.177006 -0.379725 0.063580 0.172881 -0.163976 0.140946 0.255546 0.019247 0.128937 0.130927 -0.423908 -0.167053 0.127482 -0.234491 -0.274350 0.197432 -0.065792 -0.360027
-0.002521 -0.000085 0.001400 -0.028009 0.003120 -0.101840 0.026748 0.362384 -0.036151 -0.001056 0.701753 0.010543 0.022970 -0.003292 0.104641 0.040370 0.334206 0.134738 0.013914 0.658107 0.153806 0.075479 -0.199852 -0.025551 0.153490 -0.399613 -0.052505 0.225887 -0.425413 -0.056502 0.298810 -0.449831 -0.060324 0.178341 -0.379236 0.062773 0.175062 -0.163360 0.139825 0.257737 0.019832 0.127432 0.130287 -0.423372 -0.167476 0.126481 -0.232285 -0.271759 0.194411 -0.063303 -0.358497
-0.002483 -0.000083 0.001440 -0.028432 0.003027 -0.101688 0.026916 0.362286 -0.036471 -0.001045 0.701642 0.010227 0.023471 -0.003192 0.104569 0.041770 0.334259 0.134648 0.014169 0.658057 0.153856 0.075754 -0.199711 -0.025851 0.154003 -0.399332 -0.053149 0.226498 -0.424891 -0.056887 0.299404 -0.449395 -0.060487 0.179635 -0.378699 0.061912 0.177254 -0.162685 0.138609 0.259931 0.020482 0.125856 0.129672 -0.422538 -0.168000 0.125660 -0.229043 -0.267735 0.191966 -0.059198 -0.354044
-0.002441 -0.000076 0.001477 -0.028831 0.002951 -0.101541 0.027158 0.362196 -0.036790 -0.001004 0.701533 0.009922 0.023954 -0.003103 0.104497 0.043315 0.334291 0.134558 0.014457 0.657969 0.153934 0.076032 -0.199562 -0.026169 0.154518 -0.399041 -0.053826 0.227101 -0.424376 -0.057386 0.299976 -0.448990 -0.060850 0.180870 -0.378224 0.061039 0.179337 -0.162090 0.137421 0.262012 0.021056 0.124363 0.129110 -0.421614 -0.168569 0.124946 -0.225926 -0.263923 0.190210 -0.055255 -0.349391
-0.002396 -0.000064 0.001508 -0.029176 0.002900 -0.101412 0.027479 0.362116 -0.037087 -0.000932 0.701430 0.009641 0.024389 -0.003028 0.104429 0.044940 0.334296 0.134491 0.014768 0.657842 0.154057 0.076309 -0.199411 -0.026484 0.155028 -0.398748 -0.054491 0.227681 -0.423893 -0.057972 0.300516 -0.448632 -0.061399 0.181993 -0.377840 0.060215 0.181203 -0.161607 0.136326 0.263885 0.021523 0.123080 0.128666 -0.420653 -0.169149 0.124440 -0.223023 -0.260408 0.189172 -0.051542 -0.344653
-0.002348 -0.000050 0.001533 -0.029447 0.002873 -0.101304 0.027875 0.362049 -0.037345 -0.000834 0.701335 0.009408 0.024759 -0.002973 0.104371 0.046591 0.334267 0.134469 0.015091 0.657674 0.154247 0.076580 -0.199262 -0.026785 0.155522 -0.398466 -0.055123 0.228225 -0.423461 -0.058629 0.301007 -0.448343 -0.062122 0.182935 -0.377565 0.059479 0.182753 -0.161251 0.135364 0.265477 0.021856 0.122064 0.128387 -0.419658 -0.169734 0.124303 -0.220175 -0.256871 0.188918 -0.047827 -0.339419
-0.002297 -0.000036 0.001555 -0.029620 0.002877 -0.101224 0.028338 0.362002 -0.037550 -0.000724 0.701254 0.009229 0.025033 -0.002948 0.104334 0.048194 0.334196 0.134504 0.015407 0.657461 0.154516 0.076828 -0.199128 -0.027057 0.155968 -0.398210 -0.055689 0.228695 -0.423112 -0.059341 0.301420 -0.448138 -0.063012 0.183642 -0.377441 0.058873 0.183909 -0.161068 0.134586 0.266706 0.022013 0.121381 0.128301 -0.418699 -0.170302 0.124614 -0.217520 -0.253472 0.189544 -0.044237 -0.333783
-0.002248 -0.000024 0.001569 -0.029684 0.002912 -0.101179 0.028864 0.361976 -0.037699 -0.000601 0.701190 0.009100 0.025196 -0.002959 0.104317 0.049687 0.334081 0.134599 0.015716 0.657208 0.154860 0.077045 -0.199012 -0.027298 0.156352 -0.397991 -0.056186 0.229071 -0.422877 -0.060118 0.301735 -0.448031 -0.064091 0.184092 -0.377500 0.058410 0.184631 -0.161094 0.134028 0.267530 0.021956 0.121040 0.128443 -0.417844 -0.170851 0.125386 -0.215212 -0.250440 0.191039 -0.040978 -0.328063
-0.002199 -0.000014 0.001572 -0.029623 0.002979 -0.101177 0.029443 0.361974 -0.037787 -0.000477 0.701146 0.009028 0.025233 -0.003006 0.104321 0.051035 0.333922 0.134761 0.016006 0.656920 0.155274 0.077246 -0.198911 -0.027503 0.156705 -0.397799 -0.056601 0.229376 -0.422758 -0.060926 0.301979 -0.448025 -0.065300 0.184252 -0.377745 0.058119 0.184859 -0.161334 0.133725 0.267903 0.021674 0.121076 0.128921 -0.417109 -0.171389 0.126741 -0.213246 -0.247800 0.193369 -0.038085 -0.322447
-0.002148 -0.000003 0.001563 -0.029425 0.003084 -0.101223 0.030075 0.362003 -0.037813 -0.000349 0.701127 0.009028 0.025135 -0.003091 0.104348 0.052240 0.333717 0.134988 0.016272 0.656595 0.155759 0.077449 -0.198817 -0.027670 0.157059 -0.397622 -0.056924 0.229643 -0.422742 -0.061741 0.302181 -0.448105 -0.066603 0.184147 -0.378146 0.058005 0.184679 -0.161751 0.133654 0.267903 0.021205 0.121433 0.129775 -0.416494 -0.171905 0.128718 -0.211564 -0.245430 0.196450 -0.035506 -0.316907
-0.002096 0.000009 0.001539 -0.029088 0.003233 -0.101318 0.030766 0.362068 -0.037765 -0.000203 0.701138 0.009107 0.024901 -0.003215 0.104396 0.053320 0.333463 0.135276 0.016526 0.656232 0.156302 0.077681 -0.198715 -0.027810 0.157471 -0.397431 -0.057178 0.229929 -0.422799 -0.062578 0.302393 -0.448254 -0.068012 0.183843 -0.378676 0.058037 0.184261 -0.162306 0.133761 0.267689 0.020588 0.122018 0.131060 -0.415951 -0.172419 0.131249 -0.210084 -0.243287 0.200148 -0.033208 -0.311557
-0.002036 0.000024 0.001501 -0.028602 0.003433 -0.101460 0.031524 0.362173 -0.037628 -0.000016 0.701181 0.009317 0.024533 -0.003386 0.104464 0.054297 0.333150 0.135625 0.016783 0.655817 0.156930 0.077960 -0.198601 -0.027924 0.157970 -0.397217 -0.057367 0.230262 -0.422911 -0.063409 0.302642 -0.448468 -0.069468 0.183382 -0.379332 0.058202 0.183713 -0.162997 0.134025 0.267373 0.019825 0.122816 0.132780 -0.415426 -0.172930 0.134328 -0.208702 -0.241238 0.204367 -0.031066 -0.306301
-0.001968 0.000044 0.001452 -0.027955 0.003700 -0.101649 0.032376 0.362330 -0.037392 0.000222 0.701263 0.009677 0.024025 -0.003611 0.104553 0.055221 0.332764 0.136047 0.017060 0.655335 0.157657 0.078322 -0.198455 -0.028025 0.158628 -0.396944 -0.057517 0.230717 -0.423036 -0.064237 0.302991 -0.448727 -0.070957 0.182806 -0.380098 0.058472 0.183133 -0.163810 0.134430 0.267104 0.018903 0.123796 0.135015 -0.414793 -0.173469 0.138024 -0.207234 -0.239146 0.209090 -0.028884 -0.301066
-0.001890 0.000073 0.001393 -0.027180 0.004029 -0.101870 0.033302 0.362541 -0.037096 0.000503 0.701390 0.010123 0.023408 -0.003882 0.104655 0.056100 0.332316 0.136516 0.017344 0.654795 0.158442 0.078761 -0.198274 -0.028119 0.159434 -0.396610 -0.057643 0.231293 -0.423140 -0.065072 0.303445 -0.448981 -0.072488 0.182161 -0.380958 0.058806 0.182590 -0.164748 0.134984 0.266927 0.017834 0.125020 0.137684 -0.414038 -0.174023 0.142126 -0.205671 -0.237007 0.214058 -0.026618 -0.295819
-0.001801 0.000111 0.001321 -0.026292 0.004419 -0.102121 0.034308 0.362807 -0.036777 0.000839 0.701567 0.010614 0.022703 -0.004194 0.104761 0.056972 0.331808 0.137028 0.017636 0.654197 0.159249 0.079271 -0.198060 -0.028218 0.160371 -0.396218 -0.057766 0.231979 -0.423206 -0.065936 0.303998 -0.449194 -0.074087 0.181491 -0.381889 0.059154 0.182169 -0.165805 0.135687 0.266875 0.016650 0.126573 0.140700 -0.413183 -0.174584 0.146475 -0.204052 -0.234869 0.219051 -0.024281 -0.290618
-0.001703 0.000159 0.001240 -0.025312 0.004868 -0.102389 0.035389 0.363130 -0.036452 0.001236 0.701793 0.011143 0.021924 -0.004547 0.104866 0.057901 0.331232 0.137597 0.017929 0.653525 0.160074 0.079828 -0.197820 -0.028328 0.161395 -0.395781 -0.057904 0.232742 -0.423214 -0.066838 0.304623 -0.449337 -0.075752 0.180811 -0.382883 0.059478 0.181875 -0.167025 0.136642 0.266950 0.015314 0.128701 0.143924 -0.412205 -0.175148 0.150972 -0.202330 -0.232650 0.223876 -0.021744 -0.285247
-0.001600 0.000216 0.001149 -0.024263 0.005374 -0.102669 0.036540 0.363507 -0.036127 0.001690 0.702065 0.011710 0.021088 -0.004937 0.104964 0.058915 0.330585 0.138240 0.018223 0.652773 0.160924 0.080453 -0.197540 -0.028463 0.162552 -0.395275 -0.058082 0.233640 -0.423113 -0.067795 0.305369 -0.449371 -0.077498 0.180150 -0.383892 0.059742 0.181733 -0.168384 0.137869 0.267193 0.013835 0.131452 0.147368 -0.410984 -0.175742 0.155684 -0.200343 -0.230189 0.228450 -0.018744 -0.279382
-0.001491 0.000283 0.001050 -0.023152 0.005929 -0.102956 0.037752 0.363932 -0.035805 0.002199 0.702377 0.012310 0.020201 -0.005357 0.105053 0.059980 0.329876 0.138962 0.018515 0.651954 0.161796 0.081175 -0.197206 -0.028643 0.163897 -0.394669 -0.058342 0.234731 -0.422873 -0.068826 0.306281 -0.449314 -0.079319 0.179437 -0.384890 0.059915 0.181680 -0.169863 0.139341 0.267618 0.012186 0.134740 0.151160 -0.409340 -0.176425 0.160928 -0.197854 -0.227235 0.232866 -0.014948 -0.272658
-0.001376 0.000358 0.000947 -0.022022 0.006517 -0.103236 0.039001 0.364390 -0.035503 0.002716 0.702718 0.012889 0.019309 -0.005792 0.105126 0.061091 0.329125 0.139742 0.018792 0.651089 0.162666 0.081999 -0.196811 -0.028889 0.165446 -0.393948 -0.058729 0.236026 -0.422491 -0.069976 0.307362 -0.449186 -0.081259 0.178770 -0.385810 0.059922 0.181745 -0.171398 0.140970 0.268254 0.010417 0.138165 0.155206 -0.407257 -0.177216 0.166639 -0.194916 -0.223949 0.237192 -0.010525 -0.265366
-0.001246 0.000439 0.000839 -0.020862 0.007126 -0.103511 0.040322 0.364866 -0.035227 0.003262 0.703071 0.013437 0.018415 -0.006237 0.105183 0.062282 0.328333 0.140563 0.019103 0.650179 0.163502 0.083011 -0.196321 -0.029220 0.167361 -0.393039 -0.059283 0.237663 -0.421953 -0.071302 0.308720 -0.449035 -0.083392 0.178324 -0.386549 0.059710 0.182021 -0.172883 0.142676 0.269152 0.008650 0.141228 0.159643 -0.404644 -0.178140 0.172746 -0.191539 -0.220779 0.241415 -0.005594 -0.258224
-0.001100 0.000523 0.000732 -0.019721 0.007730 -0.103766 0.041675 0.365340 -0.034991 0.003825 0.703417 0.013954 0.017574 -0.006669 0.105223 0.063574 0.327525 0.141436 0.019467 0.649251 0.164291 0.084311 -0.195689 -0.029643 0.169849 -0.391845 -0.060024 0.239815 -0.421222 -0.072851 0.310496 -0.448891 -0.085787 0.178380 -0.386968 0.059245 0.182615 -0.174188 0.144431 0.270560 0.006955 0.143318 0.164581 -0.401413 -0.179195 0.178876 -0.187732 -0.218435 0.245331 -0.000316 -0.252374
-0.000927 0.000613 0.000637 -0.018616 0.008339 -0.103985 0.042955 0.365838 -0.034795 0.004295 0.703779 0.014459 0.016822 -0.007095 0.105253 0.064878 0.326701 0.142452 0.019803 0.648312 0.165048 0.085823 -0.194946 -0.030152 0.172747 -0.390426 -0.060951 0.242328 -0.420345 -0.074590 0.312549 -0.448767 -0.088373 0.178890 -0.387095 0.058518 0.183239 -0.175485 0.146567 0.272657 0.004930 0.144773 0.169712 -0.397709 -0.180362 0.184553 -0.183682 -0.217451 0.248663 0.004957 -0.249048
-0.000718 0.000716 0.000561 -0.017630 0.008949 -0.104151 0.044043 0.366371 -0.034650 0.004546 0.704160 0.014978 0.016264 -0.007498 0.105265 0.066181 0.325885 0.143696 0.020007 0.647376 0.165763 0.087391 -0.194160 -0.030707 0.175719 -0.388932 -0.061991 0.244871 -0.419447 -0.076467 0.314564 -0.448721 -0.091118 0.180063 -0.386737 0.057584 0.183784 -0.176674 0.149289 0.275044 0.002804 0.146547 0.174108 -0.394202 -0.181535 0.189083 -0.180064 -0.217923 0.250934 0.009452 -0.248762
-0.000514 0.000803 0.000512 -0.017185 0.009379 -0.104211 0.044746 0.366742 -0.034639 0.004554 0.704375 0.015496 0.016224 -0.007753 0.105228 0.067880 0.325188 0.145166 0.020074 0.646496 0.166414 0.088914 -0.193394 -0.031231 0.178601 -0.387466 -0.062996 0.247263 -0.418637 -0.078379 0.316342 -0.448866 -0.093966 0.182564 -0.385427 0.056595 0.184706 -0.177174 0.152387 0.277673 0.001396 0.148128 0.176718 -0.391648 -0.182579 0.191637 -0.177668 -0.219911 0.251568 0.012323 -0.251609
-0.000392 0.000817 0.000498 -0.017921 0.009307 -0.104092 0.044689 0.366625 -0.034898 0.004261 0.704130 0.015904 0.017184 -0.007656 0.105083 0.070700 0.324800 0.146588 0.019961 0.645718 0.166897 0.090281 -0.192727 -0.031690 0.181245 -0.386129 -0.063907 0.249383 -0.417943 -0.080274 0.317743 -0.449253 -0.096867 0.187344 -0.382462 0.055555 0.187055 -0.175893 0.154948 0.280385 0.002400 0.147931 0.176236 -0.390642 -0.183388 0.191058 -0.177131 -0.223352 0.249891 0.012819 -0.257274
-0.000309 0.000730 0.000574 -0.020695 0.008426 -0.103559 0.043384 0.365755 -0.035780 0.003527 0.703195 0.015897 0.020147 -0.006954 0.104696 0.075622 0.325028 0.147404 0.019518 0.645104 0.166878 0.090812 -0.192507 -0.032186 0.182196 -0.385613 -0.064989 0.250039 -0.417461 -0.082479 0.317765 -0.449516 -0.100205 0.195330 -0.377376 0.053677 0.192067 -0.172480 0.156423 0.283523 0.006642 0.146464 0.169299 -0.392479 -0.183764 0.184746 -0.180089 -0.229103 0.244663 0.008249 -0.269496
-0.000132 0.000664 0.000763 -0.024868 0.007065 -0.102511 0.041121 0.364500 -0.037168 0.002443 0.701923 0.015506 0.024716 -0.005724 0.104013 0.082838 0.325745 0.147178 0.018932 0.644402 0.165866 0.091017 -0.192472 -0.032517 0.182384 -0.385494 -0.065848 0.249938 -0.417174 -0.084706 0.317018 -0.449802 -0.103795 0.205258 -0.371216 0.050748 0.199527 -0.168031 0.156734 0.288991 0.011989 0.145016 0.159220 -0.395848 -0.182799 0.173485 -0.185647 -0.237711 0.237696 -0.002369 -0.292292
0.000047 0.000629 0.000995 -0.029471 0.005485 -0.101101 0.038368 0.363106 -0.038737 0.001193 0.700536 0.014966 0.029721 -0.004216 0.103048 0.091079 0.326694 0.146026 0.018376 0.643509 0.163859 0.090978 -0.192535 -0.032711 0.182084 -0.385607 -0.066473 0.249290 -0.417096 -0.086835 0.315796 -0.449987 -0.107418 0.214789 -0.365686 0.046908 0.207988 -0.163987 0.155634 0.296649 0.016010 0.138647 0.148425 -0.399929 -0.180417 0.159386 -0.193667 -0.249261 0.232187 -0.021220 -0.324461
0.000177 0.000604 0.001212 -0.033887 0.003857 -0.099523 0.035521 0.361703 -0.040258 0.000039 0.699149 0.014478 0.034422 -0.002640 0.101888 0.099220 0.327709 0.144126 0.018053 0.642507 0.161152 0.090820 -0.192666 -0.032663 0.181599 -0.385863 -0.066587 0.248431 -0.417128 -0.088466 0.314542 -0.449827 -0.110577 0.222917 -0.361498 0.043053 0.216573 -0.161381 0.154690 0.311278 0.013722 0.124388 0.139087 -0.404553 -0.176881 0.145243 -0.204912 -0.263534 0.231634 -0.053449 -0.364967
0.000201 0.000562 0.001392 -0.037746 0.002238 -0.097984 0.032872 0.360314 -0.041605 -0.000745 0.697771 0.014227 0.038319 -0.001110 0.100705 0.106698 0.328680 0.141649 0.018196 0.641522 0.158154 0.090650 -0.192827 -0.032322 0.181207 -0.386159 -0.066072 0.247704 -0.417117 -0.089363 0.313657 -0.449101 -0.112942 0.229383 -0.358727 0.039986 0.224689 -0.160420 0.154888 0.338122 -0.009646 0.084544 0.132357 -0.409456 -0.172806 0.134423 -0.219445 -0.279082 0.235216 -0.102385 -0.408816
0.000119 0.000513 0.001542 -0.040914 0.000687 -0.096615 0.030555 0.358976 -0.042712 -0.001065 0.696452 0.014163 0.041282 0.000336 0.099645 0.113529 0.329525 0.138736 0.018891 0.640582 0.154934 0.090571 -0.192923 -0.031895 0.181113 -0.386312 -0.065356 0.247254 -0.416986 -0.090000 0.313190 -0.447856 -0.115063 0.234669 -0.357085 0.037597 0.231769 -0.161307 0.156815 0.320621 -0.263011 0.007450 0.128273 -0.414358 -0.169002 0.126082 -0.236860 -0.295069 0.243723 -0.175794 -0.447137
0.000054 0.000486 0.001674 -0.043522 -0.000827 -0.095372 0.028383 0.357686 -0.043584 -0.001101 0.695181 0.014317 0.043726 0.001791 0.098678 0.119486 0.330430 0.135693 0.019858 0.639936 0.151693 0.090714 -0.192922 -0.031359 0.181458 -0.386287 -0.064407 0.247195 -0.416876 -0.090211 0.313107 -0.446669 -0.116604 0.239360 -0.355961 0.035840 0.235207 -0.163818 0.160796 0.229325 -0.351902 0.089117 0.126043 -0.418814 -0.165364 0.117712 -0.254865 -0.308384 0.242534 -0.249888 -0.466775
0.000069 0.000486 0.001788 -0.045797 -0.002330 -0.094164 0.026226 0.356427 -0.044260 -0.001052 0.693917 0.014744 0.046012 0.003292 0.097706 0.124415 0.331527 0.132746 0.020794 0.639726 0.148622 0.091051 -0.192876 -0.030626 0.182115 -0.386196 -0.063049 0.247320 -0.417089 -0.089823 0.313076 -0.446171 -0.117372 0.243802 -0.355174 0.034697 0.231230 -0.169419 0.168440 0.207488 -0.361590 0.113169 0.124790 -0.422832 -0.161500 0.106391 -0.274048 -0.319387 0.230637 -0.310043 -0.474179
0.000182 0.000508 0.001881 -0.047901 -0.003818 -0.092922 0.024078 0.355192 -0.044808 -0.001087 0.692616 0.015495 0.048343 0.004825 0.096648 0.128307 0.332860 0.129993 0.021446 0.639952 0.145836 0.091491 -0.192847 -0.029639 0.182879 -0.386165 -0.061155 0.247213 -0.418101 -0.088796 0.312473 -0.447290 -0.117393 0.248107 -0.354588 0.034081 0.216319 -0.183012 0.182747 0.183229 -0.373924 0.127920 0.123737 -0.426533 -0.157039 0.087946 -0.298162 -0.329211 0.209654 -0.363007 -0.476437
0.000391 0.000551 0.001939 -0.049889 -0.005269 -0.091637 0.021964 0.353998 -0.045289 -0.001325 0.691275 0.016571 0.050766 0.006365 0.095467 0.131277 0.334390 0.127569 0.021686 0.640516 0.143448 0.091953 -0.192881 -0.028355 0.183588 -0.386282 -0.058613 0.246529 -0.420219 -0.087067 0.310748 -0.450687 -0.116668 0.252364 -0.354085 0.033881 0.194801 -0.208191 0.201068 0.155531 -0.396380 0.141143 0.122296 -0.430024 -0.151624 0.059809 -0.330352 -0.334830 0.174516 -0.417289 -0.476170
0.000653 0.000604 0.001975 -0.051760 -0.006670 -0.090321 0.020002 0.352844 -0.045774 -0.001773 0.689915 0.017734 0.053183 0.007875 0.094206 0.133457 0.336046 0.125398 0.021588 0.641340 0.141409 0.092295 -0.192995 -0.026983 0.183999 -0.386575 -0.055863 0.245382 -0.422752 -0.084951 0.308291 -0.455057 -0.115405 0.256251 -0.353735 0.033708 0.170658 -0.247024 0.217655 0.126620 -0.431850 0.150960 0.120192 -0.433119 -0.145771 0.030818 -0.366383 -0.332752 0.127713 -0.474828 -0.472551
0.000928 0.000662 0.001999 -0.053425 -0.007971 -0.089049 0.018321 0.351766 -0.046318 -0.002370 0.688599 0.018795 0.055417 0.009296 0.092967 0.134993 0.337705 0.123427 0.021287 0.642311 0.139612 0.092459 -0.193177 -0.025673 0.184037 -0.387010 -0.053220 0.244045 -0.425161 -0.082655 0.305707 -0.459239 -0.113722 0.259565 -0.353589 0.033384 0.150168 -0.297183 0.226777 0.099442 -0.477972 0.154040 0.117551 -0.435754 -0.139966 0.007227 -0.399876 -0.324207 0.076896 -0.530701 -0.461043
0.001193 0.000719 0.002021 -0.054805 -0.009131 -0.087899 0.017055 0.350789 -0.046944 -0.003053 0.687365 0.019668 0.057340 0.010574 0.091850 0.136051 0.339255 0.121623 0.020872 0.643297 0.137977 0.092441 -0.193424 -0.024429 0.183719 -0.387574 -0.050711 0.242691 -0.427240 -0.080234 0.303389 -0.462738 -0.111610 0.262201 -0.353720 0.033052 0.137879 -0.350701 0.225627 0.075507 -0.526552 0.149901 0.114588 -0.437918 -0.134423 -0.010055 -0.427699 -0.312645 0.031166 -0.578488 -0.440146
0.001439 0.000764 0.002039 -0.055836 -0.010134 -0.086952 0.016364 0.349908 -0.047693 -0.003806 0.686215 0.020241 0.058866 0.011668 0.090932 0.136729 0.340617 0.119971 0.020350 0.644195 0.136455 0.092255 -0.193739 -0.023216 0.183087 -0.388262 -0.048262 0.241435 -0.428938 -0.077652 0.301574 -0.465378 -0.109020 0.264047 -0.354186 0.033016 0.133631 -0.398361 0.216293 0.055137 -0.568436 0.142391 0.111609 -0.439667 -0.129315 -0.022565 -0.449419 -0.300503 -0.002009 -0.614805 -0.414160
0.001648 0.000786 0.002044 -0.056477 -0.010966 -0.086284 0.016297 0.349126 -0.048572 -0.004624 0.685165 0.020454 0.059922 0.012543 0.090276 0.137097 0.341725 0.118484 0.019789 0.644944 0.135010 0.091967 -0.194098 -0.022039 0.182291 -0.389008 -0.045876 0.240413 -0.430284 -0.074874 0.300425 -0.467213 -0.105914 0.265071 -0.355018 0.033584 0.133912 -0.435390 0.203548 0.039226 -0.599478 0.135299 0.109160 -0.441082 -0.125005 -0.031336 -0.466306 -0.289407 -0.023209 -0.642066 -0.388075
0.001785 0.000774 0.002037 -0.056669 -0.011605 -0.085988 0.016845 0.348470 -0.049576 -0.005478 0.684264 0.020200 0.060372 0.013154 0.089975 0.137226 0.342497 0.117172 0.019270 0.645470 0.133588 0.091625 -0.194469 -0.020903 0.181463 -0.389744 -0.043567 0.239850 -0.431116 -0.071886 0.300274 -0.467916 -0.102274 0.265238 -0.356227 0.035047 0.135268 -0.462707 0.190996 0.028094 -0.621448 0.128841 0.107750 -0.442264 -0.121857 -0.036474 -0.480297 -0.280464 -0.036481 -0.663755 -0.364344
0.001817 0.000731 0.002013 -0.056374 -0.012029 -0.086132 0.017893 0.347980 -0.050601 -0.006308 0.683565 0.019552 0.060118 0.013488 0.090087 0.137300 0.342848 0.116124 0.018872 0.645656 0.132194 0.091311 -0.194792 -0.019865 0.180797 -0.390351 -0.041446 0.239988 -0.431168 -0.068889 0.301397 -0.467031 -0.098411 0.264624 -0.357719 0.037483 0.135779 -0.482298 0.180414 0.020598 -0.637034 0.122633 0.107822 -0.443252 -0.120169 -0.037914 -0.492264 -0.274320 -0.044435 -0.681117 -0.344927
0.001750 0.000671 0.001973 -0.055535 -0.012214 -0.086745 0.019397 0.347694 -0.051593 -0.007083 0.683114 0.018526 0.059121 0.013552 0.090638 0.137414 0.342745 0.115442 0.018624 0.645449 0.130778 0.091022 -0.195062 -0.018915 0.180279 -0.390833 -0.039497 0.240728 -0.430485 -0.065885 0.303588 -0.464684 -0.094307 0.263151 -0.359470 0.040941 0.134394 -0.495913 0.172680 0.014785 -0.648041 0.117011 0.109275 -0.443982 -0.119839 -0.036485 -0.501823 -0.270875 -0.048611 -0.694281 -0.330086
0.001636 0.000617 0.001922 -0.054102 -0.012133 -0.087796 0.021484 0.347626 -0.052519 -0.007785 0.682911 0.017134 0.057437 0.013363 0.091602 0.137611 0.342191 0.115212 0.018510 0.644831 0.129324 0.090718 -0.195302 -0.018006 0.179779 -0.391261 -0.037622 0.241739 -0.429436 -0.062650 0.306291 -0.461644 -0.089563 0.260770 -0.361454 0.045287 0.130578 -0.504636 0.168165 0.009165 -0.655414 0.112732 0.111658 -0.444405 -0.120425 -0.033402 -0.508728 -0.269500 -0.050215 -0.703387 -0.319684
0.001506 0.000576 0.001861 -0.052067 -0.011773 -0.089220 0.024318 0.347757 -0.053339 -0.008458 0.682911 0.015383 0.055138 0.012919 0.092911 0.137892 0.341179 0.115503 0.018519 0.643794 0.127763 0.090384 -0.195530 -0.017122 0.179237 -0.391677 -0.035789 0.242720 -0.428324 -0.059234 0.308941 -0.458542 -0.084340 0.257413 -0.363615 0.050367 0.124059 -0.509400 0.166615 0.003057 -0.660101 0.110082 0.114813 -0.444613 -0.121629 -0.029212 -0.514443 -0.269222 -0.050333 -0.710136 -0.313397
0.001380 0.000545 0.001789 -0.049323 -0.011121 -0.091010 0.028457 0.347993 -0.053980 -0.009136 0.682935 0.013293 0.052129 0.012208 0.094565 0.138525 0.339568 0.116580 0.018609 0.642067 0.126065 0.090074 -0.195730 -0.016288 0.178742 -0.392044 -0.034049 0.243547 -0.427316 -0.055935 0.311202 -0.455730 -0.079261 0.252879 -0.365887 0.056181 0.114021 -0.510272 0.167634 -0.003890 -0.662727 0.109301 0.119137 -0.444590 -0.123532 -0.023747 -0.519784 -0.269592 -0.049443 -0.715487 -0.311222
0.001271 0.000528 0.001697 -0.045783 -0.010147 -0.093121 0.034587 0.348205 -0.054273 -0.009763 0.682744 0.010850 0.048353 0.011203 0.096502 0.139954 0.337128 0.118761 0.018793 0.639230 0.124262 0.089883 -0.195862 -0.015509 0.178469 -0.392290 -0.032399 0.244376 -0.426333 -0.052898 0.313196 -0.453149 -0.074654 0.246989 -0.368217 0.062718 0.101239 -0.508226 0.170907 -0.011605 -0.663807 0.110833 0.125099 -0.444125 -0.126131 -0.016948 -0.524666 -0.270143 -0.047851 -0.719344 -0.313019
0.001195 0.000527 0.001568 -0.041507 -0.008830 -0.095423 0.043666 0.348142 -0.054184 -0.010218 0.681857 0.007908 0.043908 0.009885 0.098557 0.142418 0.333689 0.122227 0.019112 0.634971 0.122326 0.089907 -0.195890 -0.014801 0.178598 -0.392340 -0.030859 0.245430 -0.425247 -0.050183 0.315174 -0.450686 -0.070612 0.239767 -0.370420 0.069638 0.088252 -0.504202 0.177785 -0.018630 -0.663286 0.116002 0.132820 -0.442821 -0.129232 -0.008946 -0.527629 -0.271054 -0.045763 -0.719920 -0.319655
0.001147 0.000536 0.001408 -0.036819 -0.007241 -0.097671 0.055554 0.347645 -0.053994 -0.010304 0.679885 0.004347 0.039109 0.008315 0.100490 0.145571 0.329392 0.126731 0.019557 0.629481 0.120199 0.090032 -0.195870 -0.014125 0.178903 -0.392305 -0.029350 0.246586 -0.424015 -0.047687 0.317067 -0.448281 -0.066980 0.231587 -0.372075 0.076181 0.078878 -0.498545 0.191225 -0.021932 -0.661011 0.128056 0.141010 -0.440504 -0.132123 -0.000537 -0.526439 -0.273484 -0.043047 -0.714986 -0.331243
0.001102 0.000523 0.001243 -0.032137 -0.005480 -0.099641 0.068785 0.346802 -0.053858 -0.010002 0.676965 0.000080 0.034320 0.006526 0.102136 0.148570 0.324611 0.131840 0.019971 0.623346 0.117878 0.089864 -0.196006 -0.013416 0.178617 -0.392561 -0.027762 0.247138 -0.422853 -0.045368 0.318197 -0.446105 -0.063770 0.222774 -0.372912 0.081718 0.074532 -0.489717 0.211837 -0.017964 -0.656947 0.148380 0.147249 -0.437613 -0.134099 0.006852 -0.519112 -0.279185 -0.037462 -0.703348 -0.348370
0.001062 0.000459 0.001147 -0.027831 -0.003709 -0.101158 0.081286 0.345879 -0.053564 -0.009544 0.673744 -0.004785 0.029922 0.004619 0.103464 0.150380 0.320028 0.136936 0.019988 0.617539 0.115477 0.088822 -0.196570 -0.012816 0.176542 -0.393637 -0.026473 0.245798 -0.422040 -0.044353 0.317091 -0.444421 -0.062931 0.213703 -0.372901 0.085379 0.074101 -0.471384 0.238228 -0.007387 -0.641336 0.167345 0.148343 -0.434856 -0.135224 0.013341 -0.505657 -0.290676 -0.023835 -0.685748 -0.373610
0.001105 0.000328 0.001216 -0.023709 -0.002071 -0.102210 0.091445 0.345302 -0.052653 -0.009292 0.671103 -0.009873 0.025893 0.002702 0.104651 0.149726 0.316378 0.141881 0.019000 0.613127 0.113138 0.087225 -0.197434 -0.012604 0.173207 -0.395272 -0.026158 0.242950 -0.421318 -0.045662 0.314033 -0.443073 -0.065726 0.203581 -0.372594 0.087354 0.073935 -0.436587 0.265249 0.015515 -0.602181 0.166689 0.146996 -0.431505 -0.137159 0.021448 -0.473068 -0.310115 0.007491 -0.651346 -0.403470
0.001198 0.000183 0.001395 -0.018911 -0.000481 -0.103073 0.098485 0.345709 -0.050583 -0.009208 0.670119 -0.014735 0.021306 0.000805 0.105866 0.145432 0.313813 0.147480 0.016896 0.610712 0.111352 0.085767 -0.198228 -0.012682 0.170079 -0.396763 -0.026551 0.240243 -0.419862 -0.048140 0.310981 -0.441080 -0.069927 0.192321 -0.372050 0.088412 0.074433 -0.385458 0.284556 0.067337 -0.508789 0.125537 0.146834 -0.426613 -0.140084 0.035642 -0.409028 -0.326445 0.078901 -0.577192 -0.429122
0.001313 0.000066 0.001576 -0.013069 0.001063 -0.103831 0.102420 0.347293 -0.047517 -0.008850 0.671259 -0.019411 0.015732 -0.000988 0.106979 0.136295 0.312796 0.152996 0.013777 0.611332 0.110088 0.084932 -0.198723 -0.012857 0.168228 -0.397657 -0.027132 0.238765 -0.417173 -0.050932 0.309128 -0.437822 -0.074411 0.180814 -0.371600 0.088990 0.077350 -0.335357 0.290315 0.151008 -0.351047 0.103562 0.149568 -0.419726 -0.143261 0.060315 -0.332939 -0.321882 0.201985 -0.416990 -0.438321
0.001424 -0.000029 0.001630 -0.005585 0.002597 -0.104495 0.103330 0.350171 -0.043554 -0.007769 0.674809 -0.023755 0.008517 -0.002719 0.107749 0.121086 0.313486 0.157299 0.009885 0.615657 0.109309 0.085088 -0.198777 -0.013084 0.168478 -0.397649 -0.027680 0.239249 -0.412738 -0.053881 0.309118 -0.432897 -0.079192 0.169037 -0.371308 0.089057 0.075076 -0.305196 0.287427 0.209577 -0.220636 0.163704 0.156767 -0.409398 -0.146196 0.090954 -0.267619 -0.297758 0.259154 -0.207586 -0.391554
0.001474 -0.000090 0.001630 0.002795 0.004255 -0.104661 0.101391 0.354020 -0.038874 -0.005824 0.680337 -0.026752 0.000258 -0.004504 0.107922 0.101799 0.315035 0.159853 0.006226 0.622091 0.109275 0.086291 -0.198322 -0.013443 0.170996 -0.396607 -0.028442 0.241776 -0.406325 -0.057051 0.311101 -0.426179 -0.084043 0.157795 -0.372003 0.087929 0.065684 -0.301139 0.285524 0.225533 -0.199878 0.216657 0.168595 -0.394079 -0.148062 0.122082 -0.215936 -0.264273 0.268176 -0.086862 -0.316135
0.001494 -0.000128 0.001594 0.011400 0.006118 -0.104148 0.098019 0.358183 -0.033920 -0.002812 0.686698 -0.027965 -0.008304 -0.006445 0.107343 0.081598 0.316247 0.161201 0.003754 0.628196 0.110178 0.088518 -0.197335 -0.014318 0.175655 -0.394494 -0.030202 0.246425 -0.398104 -0.060225 0.315533 -0.417844 -0.087850 0.148800 -0.373858 0.084580 0.052007 -0.318011 0.284736 0.231644 -0.241633 0.235286 0.183852 -0.374581 -0.147919 0.152384 -0.173553 -0.225386 0.291602 -0.030339 -0.253689
0.001450 -0.000148 0.001564 0.019152 0.008155 -0.103012 0.094329 0.362043 -0.028879 0.001167 0.692865 -0.027355 -0.016177 -0.008520 0.106149 0.063513 0.316513 0.161969 0.002631 0.632428 0.112307 0.091315 -0.195962 -0.015701 0.181472 -0.391639 -0.032994 0.252504 -0.389250 -0.062518 0.321976 -0.409035 -0.089179 0.142675 -0.376341 0.079177 0.038336 -0.343459 0.280628 0.227026 -0.285858 0.240294 0.199955 -0.355279 -0.145500 0.182250 -0.140943 -0.179412 0.330412 -0.015678 -0.234636
0.001249 -0.000128 0.001679 0.024996 0.010243 -0.101505 0.090267 0.365382 -0.024040 0.006288 0.698656 -0.024721 -0.022529 -0.010557 0.104852 0.049776 0.316016 0.161731 0.002848 0.634805 0.115393 0.094614 -0.194121 -0.017464 0.188487 -0.387857 -0.036729 0.260405 -0.380784 -0.063195 0.330736 -0.401012 -0.087133 0.140262 -0.378835 0.072426 0.028715 -0.370896 0.272536 0.220827 -0.321875 0.237349 0.215411 -0.338907 -0.142560 0.212351 -0.121347 -0.134697 0.309186 -0.174825 -0.303386
0.000770 -0.000100 0.002215 0.027271 0.011993 -0.100107 0.085924 0.367730 -0.020135 0.013532 0.703712 -0.020084 -0.025922 -0.012226 0.104486 0.041271 0.315738 0.159600 0.004818 0.636506 0.117707 0.098910 -0.191453 -0.019461 0.197990 -0.382287 -0.041422 0.271551 -0.372843 -0.061977 0.342780 -0.395042 -0.081010 0.142632 -0.379812 0.064649 0.024222 -0.404800 0.259341 0.215538 -0.349740 0.229094 0.230539 -0.324459 -0.141010 0.236535 -0.112994 -0.089531 0.264885 -0.254628 -0.230347
0.000711 -0.000030 0.002993 0.027362 0.012845 -0.099195 0.080924 0.368972 -0.017408 0.022805 0.707697 -0.013925 -0.026068 -0.012904 0.105150 0.036149 0.316735 0.155949 0.008320 0.638896 0.118348 0.105468 -0.187576 -0.020878 0.212030 -0.374047 -0.045163 0.287261 -0.364877 -0.058540 0.357432 -0.393976 -0.071107 0.151096 -0.376047 0.057816 0.023210 -0.439715 0.237097 0.216038 -0.387542 0.211732 0.245036 -0.309890 -0.140639 0.251772 -0.121167 -0.032280 0.257496 -0.259321 -0.179160
0.000477 0.000007 0.003764 0.029093 0.014044 -0.097737 0.076808 0.370589 -0.014172 0.033450 0.711464 -0.007185 -0.028241 -0.013985 0.105245 0.031202 0.316934 0.150768 0.012979 0.640205 0.117012 0.112560 -0.182992 -0.022038 0.227502 -0.364137 -0.048332 0.304153 -0.359541 -0.053468 0.369614 -0.399595 -0.059725 0.157960 -0.372888 0.048669 0.018640 -0.480973 0.195153 0.214514 -0.436037 0.182413 0.262871 -0.292511 -0.137437 0.267267 -0.135666 0.013507 0.263683 -0.268008 -0.138696
0.000142 0.000020 0.004459 0.032983 0.015839 -0.095489 0.073895 0.372723 -0.009794 0.045307 0.715086 -0.000047 -0.032772 -0.015698 0.104402 0.025558 0.316184 0.143964 0.018034 0.640211 0.113544 0.119273 -0.178232 -0.022954 0.242164 -0.353831 -0.050870 0.318828 -0.359640 -0.047454 0.375777 -0.411379 -0.050388 0.162676 -0.372028 0.036722 0.019610 -0.519888 0.137814 0.219419 -0.495959 0.145011 0.282433 -0.274190 -0.130600 0.285746 -0.145829 0.045230 0.273793 -0.277537 -0.107096
-0.000204 -0.000031 0.004962 0.038403 0.018143 -0.092494 0.071302 0.375300 -0.004511 0.056665 0.718492 0.006877 -0.038830 -0.018039 0.102443 0.018603 0.314718 0.135422 0.022293 0.639061 0.107793 0.123977 -0.174581 -0.023827 0.252172 -0.346120 -0.053102 0.325580 -0.366513 -0.042236 0.376417 -0.424209 -0.046169 0.163848 -0.374328 0.022562 0.028281 -0.549058 0.082903 0.227021 -0.562709 0.112304 0.298771 -0.259875 -0.121741 0.306300 -0.155486 0.069177 0.285209 -0.291929 -0.077899
-0.000509 -0.000126 0.005199 0.045826 0.021154 -0.088176 0.068761 0.378592 0.001801 0.067194 0.722094 0.013142 -0.046792 -0.021174 0.098653 0.010117 0.312255 0.125101 0.024893 0.636461 0.099654 0.126035 -0.172765 -0.024789 0.256188 -0.342614 -0.055255 0.323351 -0.376749 -0.039544 0.374702 -0.433772 -0.045873 0.160430 -0.379515 0.006312 0.036812 -0.569823 0.038741 0.224198 -0.626461 0.085930 0.309980 -0.251513 -0.111184 0.321350 -0.166737 0.089034 0.295847 -0.311037 -0.049603
-0.000636 -0.000228 0.005204 0.055272 0.024609 -0.081835 0.066237 0.382412 0.008946 0.078009 0.725759 0.018878 -0.056398 -0.024796 0.092416 0.000911 0.308932 0.113731 0.025628 0.632653 0.089858 0.125713 -0.172864 -0.025618 0.254902 -0.343300 -0.056905 0.315855 -0.386737 -0.038998 0.368136 -0.442852 -0.045815 0.153092 -0.386072 -0.010783 0.039165 -0.584271 0.006188 0.212016 -0.669636 0.064356 0.315704 -0.249131 -0.098815 0.325116 -0.182439 0.108229 0.300767 -0.336014 -0.020282
-0.000561 -0.000360 0.005037 0.065581 0.027901 -0.073353 0.064000 0.386164 0.016254 0.089515 0.728813 0.024329 -0.066481 -0.028372 0.083705 -0.008046 0.305322 0.102330 0.024875 0.628406 0.079784 0.123807 -0.174379 -0.026059 0.250248 -0.346822 -0.057567 0.306742 -0.395805 -0.039348 0.354168 -0.456169 -0.045313 0.144286 -0.392969 -0.026515 0.032039 -0.592583 -0.016253 0.198052 -0.688834 0.044769 0.316837 -0.251374 -0.085436 0.308739 -0.207130 0.127591 0.294323 -0.365940 0.004041
-0.000389 -0.000519 0.004751 0.075615 0.030621 -0.062867 0.062329 0.389493 0.023265 0.100564 0.730993 0.029584 -0.076184 -0.031497 0.072679 -0.015823 0.301859 0.091205 0.023270 0.624362 0.070237 0.120979 -0.176676 -0.026161 0.243872 -0.351712 -0.057412 0.296247 -0.405299 -0.039860 0.338441 -0.469547 -0.044396 0.135318 -0.398945 -0.039890 0.016710 -0.594883 -0.030385 0.183839 -0.691242 0.027332 0.314564 -0.256303 -0.072273 0.281114 -0.241460 0.142352 0.280237 -0.399707 0.017251
-0.000230 -0.000687 0.004420 0.084405 0.032551 -0.050812 0.060661 0.392154 0.029852 0.109700 0.732301 0.034289 -0.084759 -0.033876 0.059848 -0.021897 0.298893 0.080498 0.021434 0.620982 0.061607 0.117846 -0.179148 -0.026020 0.237172 -0.356730 -0.056726 0.284689 -0.414934 -0.040075 0.324126 -0.480975 -0.043536 0.127256 -0.403635 -0.050374 -0.002479 -0.592368 -0.040429 0.167859 -0.684382 0.014950 0.310459 -0.262186 -0.060111 0.254484 -0.274309 0.149944 0.263228 -0.431057 0.023268
-0.000149 -0.000855 0.004136 0.091445 0.033658 -0.037553 0.058771 0.394067 0.036080 0.116455 0.732877 0.038280 -0.091742 -0.035398 0.045805 -0.026372 0.296624 0.070329 0.019834 0.618454 0.054019 0.114737 -0.181492 -0.025675 0.230538 -0.361509 -0.055688 0.273421 -0.423466 -0.040028 0.311066 -0.490586 -0.042555 0.120014 -0.407321 -0.058423 -0.023098 -0.586182 -0.049621 0.149789 -0.672761 0.006615 0.305453 -0.268420 -0.049103 0.227322 -0.298501 0.151880 0.242728 -0.453885 0.024163
-0.000164 -0.001038 0.003946 0.096538 0.033893 -0.023386 0.056665 0.395187 0.041886 0.120795 0.732844 0.041551 -0.096911 -0.036021 0.031058 -0.029328 0.295139 0.060701 0.018732 0.616838 0.047426 0.111734 -0.183649 -0.025197 0.224174 -0.365900 -0.054501 0.263277 -0.430511 -0.039699 0.299429 -0.498473 -0.041394 0.113493 -0.410155 -0.065133 -0.043802 -0.576829 -0.059810 0.130134 -0.658193 0.000807 0.300118 -0.274700 -0.039127 0.201533 -0.313700 0.151040 0.219547 -0.468851 0.023381
-0.000289 -0.001244 0.003877 0.099612 0.033244 -0.008320 0.054009 0.395501 0.047126 0.122114 0.732363 0.043847 -0.100221 -0.035752 0.015773 -0.030804 0.294432 0.051452 0.018192 0.616115 0.041728 0.108892 -0.185582 -0.024691 0.218267 -0.369783 -0.053390 0.254667 -0.436082 -0.039168 0.289726 -0.504628 -0.040143 0.107808 -0.412041 -0.071692 -0.063773 -0.564060 -0.071134 0.109085 -0.642030 -0.003392 0.294632 -0.280731 -0.029744 0.175143 -0.322936 0.147300 0.191796 -0.480202 0.022067
-0.000515 -0.001436 0.003856 0.100530 0.031702 0.007062 0.050269 0.394822 0.051811 0.120123 0.731267 0.044754 -0.101559 -0.034549 0.000353 -0.030725 0.294559 0.042585 0.018367 0.616324 0.036861 0.106026 -0.187372 -0.024322 0.212447 -0.373359 -0.052611 0.247731 -0.440286 -0.038520 0.282360 -0.509057 -0.038829 0.102619 -0.413155 -0.078610 -0.082357 -0.548437 -0.084326 0.087109 -0.625386 -0.007460 0.288578 -0.286586 -0.021058 0.151026 -0.327122 0.142770 0.164194 -0.487843 0.021575
-0.000783 -0.001580 0.003832 0.099416 0.029429 0.021638 0.045078 0.393082 0.056109 0.114831 0.729420 0.044457 -0.100939 -0.032581 -0.014239 -0.029571 0.295504 0.034541 0.019178 0.617368 0.032889 0.103132 -0.189033 -0.024101 0.206646 -0.376693 -0.052127 0.242293 -0.443369 -0.037766 0.277107 -0.512047 -0.037450 0.097868 -0.413847 -0.085426 -0.099920 -0.528958 -0.098810 0.064037 -0.608352 -0.013002 0.282269 -0.292423 -0.013385 0.132458 -0.326789 0.140820 0.141824 -0.490661 0.023553
-0.001105 -0.001664 0.003743 0.096713 0.026719 0.034477 0.039464 0.390673 0.059859 0.108098 0.727062 0.043848 -0.098828 -0.030062 -0.027282 -0.027816 0.297136 0.027600 0.020392 0.619079 0.029618 0.100006 -0.190668 -0.024022 0.200443 -0.380020 -0.051865 0.237607 -0.445713 -0.036831 0.273026 -0.514075 -0.035912 0.092790 -0.414745 -0.090938 -0.115775 -0.506571 -0.115814 0.041186 -0.589896 -0.021111 0.276002 -0.298440 -0.007629 0.124139 -0.320671 0.146796 0.132564 -0.485477 0.030774
-0.001517 -0.001681 0.003490 0.092970 0.023939 0.045135 0.034926 0.388221 0.062840 0.102042 0.724735 0.043381 -0.095802 -0.027317 -0.038605 -0.026119 0.299181 0.021865 0.021381 0.621198 0.026789 0.096378 -0.192373 -0.024269 0.193293 -0.383553 -0.052096 0.232727 -0.447595 -0.035775 0.268960 -0.515511 -0.033984 0.086185 -0.416496 -0.094100 -0.128888 -0.483153 -0.137118 0.019295 -0.571428 -0.033207 0.270309 -0.304795 -0.005332 0.132366 -0.304612 0.163118 0.150727 -0.465748 0.043155
-0.001962 -0.001672 0.003202 0.088772 0.021394 0.053735 0.032423 0.386191 0.065205 0.098812 0.722720 0.043619 -0.092386 -0.024736 -0.047890 -0.024835 0.301296 0.017325 0.021827 0.623393 0.024538 0.092923 -0.193890 -0.024478 0.186595 -0.386692 -0.052219 0.227823 -0.449309 -0.034833 0.264623 -0.516896 -0.032300 0.079848 -0.418084 -0.096280 -0.137103 -0.460559 -0.156928 0.001259 -0.554920 -0.045123 0.265203 -0.310651 -0.003642 0.143101 -0.286809 0.175036 0.164555 -0.447308 0.054733
-0.002412 -0.001630 0.002897 0.084557 0.019193 0.060527 0.031056 0.384538 0.067221 0.096658 0.721124 0.044184 -0.088987 -0.022424 -0.055337 -0.023788 0.303292 0.013738 0.022023 0.625463 0.022822 0.090048 -0.195040 -0.024685 0.181198 -0.389063 -0.052319 0.223131 -0.450978 -0.034130 0.260092 -0.518449 -0.030916 0.075025 -0.419279 -0.098537 -0.140955 -0.439979 -0.172525 -0.012949 -0.541038 -0.054416 0.260924 -0.315470 -0.001833 0.153489 -0.269433 0.181856 0.174011 -0.432141 0.064392
-0.002846 -0.001561 0.002580 0.080526 0.017312 0.065916 0.029697 0.383084 0.069239 0.093754 0.719859 0.044665 -0.085771 -0.020378 -0.061360 -0.022818 0.305097 0.010866 0.022243 0.627325 0.021536 0.087865 -0.195806 -0.024940 0.177296 -0.390637 -0.052504 0.218857 -0.452635 -0.033751 0.255578 -0.520204 -0.029916 0.072086 -0.419962 -0.101419 -0.141981 -0.422425 -0.183389 -0.024230 -0.529998 -0.060462 0.257454 -0.319215 0.000362 0.161699 -0.255469 0.185216 0.179826 -0.421529 0.072129
-0.003242 -0.001465 0.002261 0.076818 0.015737 0.070179 0.028253 0.381830 0.071293 0.091393 0.718673 0.045314 -0.082832 -0.018587 -0.066231 -0.021984 0.306698 0.008605 0.022359 0.628979 0.020618 0.086313 -0.196249 -0.025240 0.174707 -0.391556 -0.052775 0.215148 -0.454205 -0.033739 0.251320 -0.522041 -0.029425 0.070841 -0.420145 -0.104892 -0.141611 -0.409205 -0.190301 -0.033456 -0.522177 -0.063462 0.254646 -0.322075 0.002932 0.164874 -0.246344 0.186260 0.180034 -0.416200 0.078499
-0.003575 -0.001349 0.001967 0.073467 0.014421 0.073621 0.026827 0.380767 0.073391 0.090205 0.717486 0.046412 -0.080152 -0.017024 -0.070207 -0.021347 0.308117 0.006854 0.022205 0.630458 0.020066 0.085331 -0.196439 -0.025472 0.173238 -0.391976 -0.052937 0.212054 -0.455681 -0.034021 0.247407 -0.523934 -0.029513 0.071142 -0.419724 -0.108868 -0.140907 -0.400170 -0.193739 -0.041108 -0.517091 -0.063670 0.252195 -0.324263 0.006239 0.158579 -0.242984 0.185218 0.169440 -0.417021 0.083798
-0.003825 -0.001219 0.001758 0.070477 0.013333 0.076497 0.025269 0.379856 0.075567 0.089450 0.716362 0.047833 -0.077703 -0.015668 -0.073423 -0.020856 0.309384 0.005465 0.021860 0.631788 0.019833 0.084742 -0.196484 -0.025526 0.172474 -0.392123 -0.052832 0.209472 -0.457034 -0.034384 0.243860 -0.525786 -0.029977 0.072526 -0.418742 -0.113029 -0.140509 -0.393759 -0.193914 -0.047530 -0.513579 -0.061450 0.249706 -0.326052 0.010341 0.139946 -0.245500 0.180245 0.146186 -0.423243 0.085052
-0.004026 -0.001065 0.001565 0.067797 0.012415 0.078884 0.023366 0.379033 0.077825 0.088683 0.715252 0.049270 -0.075471 -0.014438 -0.076124 -0.020435 0.310533 0.004364 0.021433 0.633000 0.019788 0.084360 -0.196425 -0.025633 0.172057 -0.392091 -0.052849 0.207077 -0.458246 -0.034965 0.240405 -0.527528 -0.030721 0.074504 -0.417420 -0.117376 -0.140160 -0.388792 -0.192541 -0.053177 -0.510929 -0.058137 0.247180 -0.327622 0.014392 0.119945 -0.250289 0.173245 0.121357 -0.431057 0.083723
-0.004190 -0.000890 0.001372 0.065361 0.011611 0.080901 0.021466 0.378294 0.080022 0.087572 0.714281 0.050567 -0.073405 -0.013279 -0.078469 -0.020026 0.311603 0.003480 0.021023 0.634129 0.019848 0.084075 -0.196307 -0.025803 0.171772 -0.391977 -0.052991 0.204768 -0.459324 -0.035715 0.236995 -0.529135 -0.031662 0.076754 -0.415875 -0.121709 -0.139826 -0.384792 -0.190101 -0.058173 -0.508865 -0.054135 0.244543 -0.329073 0.018203 0.102177 -0.255831 0.165754 0.097727 -0.438845 0.081023
-0.004328 -0.000698 0.001170 0.063114 0.010883 0.082631 0.019805 0.377636 0.082037 0.086114 0.713503 0.051682 -0.071471 -0.012164 -0.080556 -0.019603 0.312618 0.002748 0.020666 0.635198 0.019960 0.083811 -0.196168 -0.026038 0.171482 -0.391845 -0.053257 0.202492 -0.460291 -0.036633 0.233621 -0.530610 -0.032791 0.079070 -0.414213 -0.125931 -0.139430 -0.381346 -0.186986 -0.062527 -0.507212 -0.049902 0.241752 -0.330473 0.021687 0.087283 -0.261309 0.158651 0.075882 -0.445675 0.077580
-0.004441 -0.000500 0.000962 0.061025 0.010206 0.084136 0.018398 0.377040 0.083848 0.084391 0.712886 0.052589 -0.069642 -0.011090 -0.082438 -0.019124 0.313584 0.002107 0.020428 0.636211 0.020071 0.083501 -0.196049 -0.026317 0.171053 -0.391770 -0.053605 0.200249 -0.461171 -0.037675 0.230355 -0.531949 -0.034095 0.081217 -0.412535 -0.129894 -0.138976 -0.378242 -0.183646 -0.066429 -0.505838 -0.045789 0.238792 -0.331872 0.024784 0.075184 -0.266243 0.152569 0.056904 -0.451142 0.074010
-0.004524 -0.000301 0.000740 0.059054 0.009568 0.085469 0.017491 0.376524 0.085346 0.082796 0.712435 0.053355 -0.067862 -0.010054 -0.084183 -0.018600 0.314512 0.001508 0.020256 0.637184 0.020189 0.083084 -0.195988 -0.026622 0.170359 -0.391821 -0.053993 0.197998 -0.462013 -0.038762 0.227203 -0.533181 -0.035476 0.083075 -0.410900 -0.133613 -0.138533 -0.375337 -0.180252 -0.070050 -0.504578 -0.041851 0.235534 -0.333345 0.027577 0.064968 -0.270766 0.147554 0.040915 -0.455667 0.070572
-0.004601 -0.000113 0.000544 0.057363 0.008992 0.086544 0.017849 0.376174 0.086183 0.082773 0.712164 0.054240 -0.066351 -0.009104 -0.085624 -0.018257 0.315367 0.001086 0.019879 0.638093 0.020295 0.082618 -0.195960 -0.026917 0.169550 -0.391932 -0.054386 0.195808 -0.462806 -0.039893 0.224195 -0.534318 -0.036912 0.084579 -0.409403 -0.136826 -0.138151 -0.372874 -0.176917 -0.073356 -0.503589 -0.038123 0.232465 -0.334847 0.029900 0.057027 -0.274612 0.143902 0.028309 -0.459164 0.067684
-0.004678 0.000062 0.000376 0.056001 0.008473 0.087357 0.019164 0.375932 0.086373 0.084115 0.711996 0.055270 -0.065167 -0.008241 -0.086750 -0.018142 0.316155 0.000821 0.019261 0.638945 0.020408 0.082122 -0.195954 -0.027205 0.168671 -0.392079 -0.054791 0.193719 -0.463539 -0.041047 0.221370 -0.535350 -0.038364 0.085688 -0.408096 -0.139520 -0.137907 -0.370868 -0.173718 -0.076373 -0.502822 -0.034614 0.229751 -0.336339 0.031716 0.050895 -0.277848 0.141228 0.018395 -0.461886 0.065289
-0.004749 0.000211 0.000238 0.054916 0.007996 0.087976 0.020741 0.375709 0.086268 0.086060 0.711807 0.056336 -0.064247 -0.007473 -0.087624 -0.018171 0.316868 0.000653 0.018562 0.639719 0.020495 0.081630 -0.195970 -0.027486 0.167790 -0.392246 -0.055218 0.191749 -0.464216 -0.042217 0.218722 -0.536296 -0.039832 0.086414 -0.406996 -0.141717 -0.137840 -0.369299 -0.170684 -0.079183 -0.502266 -0.031302 0.227505 -0.337768 0.033029 0.046492 -0.280216 0.139451 0.010924 -0.463692 0.063525
-0.004813 0.000329 0.000110 0.054018 0.007554 0.088457 0.022161 0.375473 0.086133 0.087947 0.711571 0.057247 -0.063495 -0.006805 -0.088345 -0.018260 0.317488 0.000542 0.017873 0.640396 0.020564 0.081157 -0.196008 -0.027784 0.166935 -0.392427 -0.055685 0.189917 -0.464840 -0.043394 0.216270 -0.537157 -0.041300 0.086785 -0.406109 -0.143495 -0.137938 -0.367954 -0.167862 -0.081799 -0.501846 -0.028329 0.225721 -0.339082 0.033867 0.043632 -0.281440 0.138387 0.005441 -0.464391 0.062469
-0.004872 0.000416 -0.000027 0.053257 0.007148 0.088822 0.023223 0.375217 0.086107 0.089527 0.711272 0.057909 -0.062868 -0.006234 -0.088971 -0.018362 0.318005 0.000481 0.017239 0.640964 0.020616 0.080706 -0.196064 -0.028122 0.166115 -0.392615 -0.056224 0.188221 -0.465405 -0.044573 0.214011 -0.537932 -0.042749 0.086842 -0.405412 -0.144958 -0.138178 -0.366673 -0.165337 -0.084208 -0.501473 -0.025822 0.224335 -0.340250 0.034272 0.042067 -0.281399 0.137802 0.001757 -0.463962 0.062046
-0.004926 0.000475 -0.000165 0.052619 0.006772 0.089095 0.023841 0.374941 0.086259 0.090741 0.710901 0.058340 -0.062350 -0.005749 -0.089511 -0.018467 0.318433 0.000456 0.016661 0.641440 0.020648 0.080279 -0.196133 -0.028496 0.165333 -0.392803 -0.056836 0.186659 -0.465913 -0.045747 0.211931 -0.538628 -0.044147 0.086645 -0.404919 -0.146184 -0.138529 -0.365439 -0.163164 -0.086445 -0.501125 -0.023791 0.223314 -0.341309 0.034310 0.041476 -0.280414 0.137413 -0.000557 -0.462689 0.061902
-0.004979 0.000509 -0.000292 0.052112 0.006427 0.089285 0.024282 0.374668 0.086456 0.091829 0.710512 0.058692 -0.061959 -0.005345 -0.089946 -0.018620 0.318789 0.000453 0.016053 0.641842 0.020696 0.079879 -0.196211 -0.028886 0.164603 -0.392986 -0.057490 0.185249 -0.466364 -0.046893 0.210050 -0.539244 -0.045466 0.086275 -0.404612 -0.147218 -0.138940 -0.364219 -0.161256 -0.088571 -0.500712 -0.022040 0.222609 -0.342297 0.034091 0.041440 -0.279125 0.137001 -0.002133 -0.461163 0.061790
-0.005032 0.000523 -0.000408 0.051712 0.006104 0.089410 0.024663 0.374404 0.086642 0.092822 0.710133 0.058995 -0.061676 -0.005001 -0.090296 -0.018799 0.319094 0.000462 0.015447 0.642189 0.020773 0.079513 -0.196290 -0.029282 0.163940 -0.393152 -0.058169 0.184014 -0.466750 -0.048014 0.208391 -0.539775 -0.046711 0.085832 -0.404461 -0.148130 -0.139336 -0.362991 -0.159522 -0.090587 -0.500155 -0.020389 0.222147 -0.343237 0.033709 0.041651 -0.277977 0.136501 -0.003366 -0.459801 0.061622
-0.005085 0.000528 -0.000513 0.051394 0.005795 0.089492 0.025046 0.374147 0.086780 0.093770 0.709771 0.059247 -0.061474 -0.004693 -0.090579 -0.018968 0.319370 0.000468 0.014920 0.642496 0.020879 0.079185 -0.196360 -0.029683 0.163352 -0.393288 -0.058869 0.182962 -0.467063 -0.049095 0.206965 -0.540214 -0.047862 0.085392 -0.404419 -0.148982 -0.139661 -0.361736 -0.157888 -0.092500 -0.499401 -0.018703 0.221851 -0.344122 0.033227 0.041887 -0.277230 0.135901 -0.004542 -0.458804 0.061281
-0.005137 0.000527 -0.000602 0.051156 0.005508 0.089535 0.025531 0.373910 0.086779 0.094750 0.709453 0.059502 -0.061349 -0.004415 -0.090794 -0.019149 0.319627 0.000470 0.014416 0.642780 0.021001 0.078908 -0.196411 -0.030084 0.162863 -0.393383 -0.059585 0.182104 -0.467296 -0.050128 0.205782 -0.540553 -0.048926 0.085030 -0.404416 -0.149819 -0.139848 -0.360405 -0.156386 -0.094365 -0.498275 -0.016846 0.221677 -0.344955 0.032701 0.041881 -0.277192 0.135097 -0.006267 -0.458359 0.060577
-0.005189 0.000525 -0.000679 0.050994 0.005246 0.089542 0.026107 0.373697 0.086655 0.095748 0.709186 0.059782 -0.061299 -0.004163 -0.090948 -0.019344 0.319868 0.000468 0.013903 0.643045 0.021132 0.078689 -0.196435 -0.030491 0.162489 -0.393422 -0.060324 0.181439 -0.467443 -0.051126 0.204835 -0.540791 -0.049916 0.084786 -0.404418 -0.150673 -0.139863 -0.358996 -0.155150 -0.096195 -0.496683 -0.014852 0.221615 -0.345732 0.032147 0.041615 -0.277792 0.134066 -0.008486 -0.458374 0.059413
-0.005245 0.000521 -0.000754 0.050868 0.005009 0.089521 0.026653 0.373504 0.086506 0.096643 0.708953 0.060051 -0.061295 -0.003939 -0.091072 -0.019538 0.320083 0.000465 0.013384 0.643285 0.021267 0.078534 -0.196430 -0.030891 0.162249 -0.393405 -0.061053 0.180938 -0.467518 -0.052068 0.204076 -0.540947 -0.050831 0.084668 -0.404409 -0.151506 -0.139724 -0.357601 -0.154229 -0.097950 -0.494788 -0.012869 0.221660 -0.346403 0.031588 0.041460 -0.278422 0.133125 -0.010527 -0.458433 0.058382
-0.005309 0.000516 -0.000830 0.050750 0.004798 0.089489 0.027145 0.373332 0.086353 0.097409 0.708754 0.060280 -0.061313 -0.003742 -0.091186 -0.019717 0.320271 0.000454 0.012891 0.643495 0.021404 0.078440 -0.196401 -0.031278 0.162134 -0.393335 -0.061754 0.180575 -0.467533 -0.052951 0.203471 -0.541036 -0.051680 0.084677 -0.404378 -0.152308 -0.139455 -0.356279 -0.153544 -0.099593 -0.492706 -0.010902 0.221790 -0.346963 0.031046 0.041520 -0.278866 0.132382 -0.012099 -0.458432 0.057725
-0.005378 0.000511 -0.000898 0.050631 0.004606 0.089460 0.027595 0.373175 0.086208 0.098063 0.708581 0.060488 -0.061340 -0.003565 -0.091289 -0.019879 0.320443 0.000431 0.012433 0.643685 0.021556 0.078395 -0.196351 -0.031637 0.162124 -0.393225 -0.062404 0.180326 -0.467502 -0.053778 0.202990 -0.541077 -0.052476 0.084795 -0.404333 -0.153061 -0.139086 -0.355067 -0.153004 -0.101112 -0.490513 -0.008918 0.221986 -0.347426 0.030549 0.041809 -0.279086 0.131886 -0.013096 -0.458387 0.057525
-0.005448 0.000505 -0.000953 0.050523 0.004427 0.089437 0.028004 0.373026 0.086083 0.098641 0.708423 0.060702 -0.061378 -0.003400 -0.091371 -0.020031 0.320610 0.000395 0.012016 0.643865 0.021720 0.078386 -0.196288 -0.031963 0.162183 -0.393091 -0.063003 0.180167 -0.467440 -0.054543 0.202615 -0.541081 -0.053209 0.084989 -0.404279 -0.153765 -0.138661 -0.353988 -0.152497 -0.102456 -0.488366 -0.006964 0.222220 -0.347827 0.030098 0.042182 -0.279236 0.131513 -0.013867 -0.458321 0.057484
